COSMOS 2251 DEB         
1 37316U 93036BKG 17345.91674868  .00000739  00000-0  20010-3 0  9995
2 37316  74.0359 170.2767 0074892 262.3168  96.9482 14.47948470435859
